NAVSTAR 48 (USA 151)    
1 26407U 00040A   26176.50941497  .00000076  00000+0  00000+0 0  9995
2 26407  54.8505 214.8316 0120927 302.5393 230.1872  2.00557833190117
NAVSTAR 51 (USA 166)    
1 27663U 03005A   26176.78639160  .00000078  00000+0  00000+0 0  9997
2 27663  54.8811 214.6270 0148000  53.0943  95.6936  2.00560201171487
NAVSTAR 54 (USA 177)    
1 28190U 04009A   26176.32131095 -.00000063  00000+0  00000+0 0  9997
2 28190  54.8228 275.3584 0116434 173.4542 152.4865  2.00554574163104
NAVSTAR 56 (USA 180)    
1 28474U 04045A   26176.53399328 -.00000107  00000+0  00000+0 0  9999
2 28474  55.1309 324.5600 0169905 316.6122 227.8521  2.00556394158590
NAVSTAR 57 (USA 183)    
1 28874U 05038A   26176.29662784 -.00000059  00000+0  00000+0 0  9994
2 28874  54.8713 272.8500 0127971 296.2313  40.8481  2.00565229151997
INMARSAT 4-F2           
1 28899U 05044A   26176.75476543 -.00000255  00000+0  00000+0 0  9993
2 28899   5.1061  43.6907 0003295  43.1569 242.2451  1.00272247 75600
NAVSTAR 58 (USA 190)    
1 29486U 06042A   26175.47016282  .00000065  00000+0  00000+0 0  9991
2 29486  54.7116 151.0498 0106722  54.5971 304.3172  2.00569473144535
NAVSTAR 59 (USA 192)    
1 29601U 06052A   26175.89728205  .00000073  00000+0  00000+0 0  9991
2 29601  54.9340 213.7005 0084883  90.7884 270.2594  2.00558525143560
NAVSTAR 60 (USA 196)    
1 32260U 07047A   26176.70101597 -.00000078  00000+0  00000+0 0  9997
2 32260  54.1013  79.7146 0167094  87.5654 274.3584  2.00554930136983
COSMOS 2433 [GLONASS-M] 
1 32275U 07052A   26176.83151597 -.00000085  00000+0  00000+0 0  9996
2 32275  65.5715 315.6419 0002849 195.4278 164.5523  2.13104185145234
COSMOS 2432 [GLONASS-M] 
1 32276U 07052B   26176.42628052 -.00000085  00000+0  00000+0 0  9997
2 32276  65.5878 315.7835 0007445 328.9669  23.9796  2.13103144145258
NAVSTAR 61 (USA 199)    
1 32384U 07062A   26176.50452001 -.00000058  00000+0  00000+0 0  9996
2 32384  55.0248 273.8181 0035834 166.1763 179.4425  2.00560672135671
COSMOS 2434 [GLONASS-M] 
1 32393U 07065A   26175.24269938  .00000104  00000+0  00000+0 0  9995
2 32393  64.3185 191.6780 0001218 329.6541 141.2402  2.13101274143927
COSMOS 2436 [GLONASS-M] 
1 32395U 07065C   26173.14632410  .00000084  00000+0  00000+0 0  9990
2 32395  64.3269 191.8207 0017276 353.7327  81.1911  2.13100062143830
NAVSTAR 62 (USA 201)    
1 32711U 08012A   26176.11302078  .00000055  00000+0  00000+0 0  9997
2 32711  54.4984 149.6081 0211407 247.9387 109.7831  2.00572687133917
NAVSTAR 64 (USA 206)    
1 35752U 09043A   26176.61292522 -.00000088  00000+0  00000+0 0  9994
2 35752  56.2157  27.1208 0053800  83.5573 286.5798  2.00553976123533
COSMOS 2456 [GLONASS-M] 
1 36111U 09070A   26176.78374925 -.00000065  00000+0  00000+0 0  9995
2 36111  65.0164  70.6784 0004249 334.9853  36.3390  2.13103651128616
COSMOS 2457 [GLONASS-M] 
1 36112U 09070B   26174.95633448 -.00000070  00000+0  00000+0 0  9997
2 36112  65.0012  70.5847 0003066 122.1178  54.6156  2.13101046128575
COSMOS 2460 [GLONASS-M] 
1 36402U 10007C   26175.59892152 -.00000084  00000+0  00000+0 0  9996
2 36402  65.4157 314.2152 0002044 120.3495 191.3100  2.13101547126881
NAVSTAR 65 (USA 213)    
1 36585U 10022A   26176.49870494  .00000084  00000+0  00000+0 0  9999
2 36585  54.2698 208.2271 0126410  66.1237 340.5349  2.00562917117766
BEIDOU-2 IGSO-1         
1 36828U 10036A   26176.40346240 -.00000049  00000+0  00000+0 0  9994
2 36828  54.3046 162.8849 0059062 225.4119 138.0578  1.00269899 58183
BEIDOU-2 G4             
1 37210U 10057A   26176.63692110 -.00000105  00000+0  00000+0 0  9991
2 37210   3.6684  68.9055 0004824 193.7757  40.3654  1.00271411 57373
BEIDOU-2 IGSO-2         
1 37256U 10068A   26175.67652892 -.00000223  00000+0  00000+0 0  9990
2 37256  47.5326 271.7373 0056042 213.3814 139.3528  1.00281062 56867
BEIDOU-2 IGSO-3         
1 37384U 11013A   26176.54644699 -.00000187  00000+0  00000+0 0  9995
2 37384  62.4191  40.0714 0035058 184.1159 353.6243  1.00266124 55745
GSAT-8                  
1 37605U 11022A   26176.74975894  .00000093  00000+0  00000+0 0  9992
2 37605   2.1533  81.7288 0001664 186.9561 330.1787  1.00272636 53301
BEIDOU-2 IGSO-4         
1 37763U 11038A   26176.69088127  .00000031  00000+0  00000+0 0  9994
2 37763  54.6027 165.5967 0159513 231.5189 219.1661  1.00283882 54731
GSAT0101 (GALILEO-PFM)  
1 37846U 11060A   26174.30083960 -.00000098  00000+0  00000+0 0  9991
2 37846  56.9921 341.5952 0002928  54.5594 305.4650  1.70475800 91223
GSAT0102 (GALILEO-FM2)  
1 37847U 11060B   26176.58449964 -.00000097  00000+0  00000+0 0  9993
2 37847  56.9921 341.5338 0002831  14.5912 352.5946  1.70476098 91271
COSMOS 2476 [GLONASS-M] 
1 37867U 11064A   26173.36699142 -.00000061  00000+0  00000+0 0  9998
2 37867  65.2731  72.6963 0022606 238.5611 299.8582  2.13103651113877
COSMOS 2477 [GLONASS-M] 
1 37868U 11064B   26176.42084884 -.00000066  00000+0  00000+0 0  9995
2 37868  65.2813  72.6725 0019498 239.2656 302.2950  2.13102927113937
COSMOS 2475 [GLONASS-M] 
1 37869U 11064C   26175.60201064 -.00000069  00000+0  00000+0 0  9999
2 37869  65.2875  72.7218 0025370 252.8392 335.6275  2.13101777113929
